{
  "norad_id": 59032,
  "name": "STARLINK-30862",
  "history": [
    {
      "epoch": "2026-03-28T18:43:03.332352Z",
      "apogee_km": 483.885009599735,
      "perigee_km": 482.1856344390171,
      "latitude_deg": 9.099598516045624e-06,
      "longitude_deg": 161.40468482225265,
      "height_km": 482.84999732096355,
      "semi_major_axis_km": 6861.172322019375,
      "eccentricity": 0.00012384,
      "inclination_deg": 43.002,
      "raan_deg": 268.364,
      "arg_perigee_deg": 267.4439,
      "mean_anomaly_deg": 92.6271,
      "mean_motion_rev_day": 15.275846
    },
    {
      "epoch": "2026-03-29T04:07:59.757024Z",
      "apogee_km": 483.9438105377503,
      "perigee_km": 482.1379485198577,
      "latitude_deg": 1.1298113962563178e-05,
      "longitude_deg": 17.567696397190748,
      "height_km": 482.8252095179371,
      "semi_major_axis_km": 6861.177879528804,
      "eccentricity": 0.0001316,
      "inclination_deg": 43.0022,
      "raan_deg": 266.1488,
      "arg_perigee_deg": 269.5269,
      "mean_anomaly_deg": 90.5432,
      "mean_motion_rev_day": 15.27582744
    },
    {
      "epoch": "2026-03-29T04:07:59.757888Z",
      "apogee_km": 483.94401337834006,
      "perigee_km": 482.13773969056365,
      "latitude_deg": 1.3653634211542281e-05,
      "longitude_deg": 17.567695299174343,
      "height_km": 482.8252082233881,
      "semi_major_axis_km": 6861.177876534452,
      "eccentricity": 0.00013163,
      "inclination_deg": 43.0022,
      "raan_deg": 266.1488,
      "arg_perigee_deg": 269.5269,
      "mean_anomaly_deg": 90.5432,
      "mean_motion_rev_day": 15.27582745
    },
    {
      "epoch": "2026-03-30T17:47:45.314016Z",
      "apogee_km": 483.41788725198694,
      "perigee_km": 482.6580807342589,
      "latitude_deg": -3.170694199790305e-05,
      "longitude_deg": 162.22078074777315,
      "height_km": 482.84943956195315,
      "semi_major_axis_km": 6861.174983993123,
      "eccentricity": 5.537e-05,
      "inclination_deg": 43.0021,
      "raan_deg": 257.2885,
      "arg_perigee_deg": 264.6725,
      "mean_anomaly_deg": 95.4063,
      "mean_motion_rev_day": 15.27583711
    },
    {
      "epoch": "2026-03-31T17:20:06.040032Z",
      "apogee_km": 483.2876848752485,
      "perigee_km": 482.8128907149339,
      "latitude_deg": -4.934963349719634e-05,
      "longitude_deg": 162.62488874016964,
      "height_km": 483.0627964786034,
      "semi_major_axis_km": 6861.187287795091,
      "eccentricity": 3.46e-05,
      "inclination_deg": 42.9976,
      "raan_deg": 251.7457,
      "arg_perigee_deg": 179.8379,
      "mean_anomaly_deg": 180.2472,
      "mean_motion_rev_day": 15.27579602
    },
    {
      "epoch": "2026-04-01T10:35:49.043904Z",
      "apogee_km": 484.30698761584335,
      "perigee_km": 481.7793288455505,
      "latitude_deg": 5.194581454974962e-06,
      "longitude_deg": -101.07405786523749,
      "height_km": 482.743970851549,
      "semi_major_axis_km": 6861.180158230696,
      "eccentricity": 0.0001842,
      "inclination_deg": 43.0021,
      "raan_deg": 247.6848,
      "arg_perigee_deg": 273.4695,
      "mean_anomaly_deg": 86.5946,
      "mean_motion_rev_day": 15.27581983
    }
  ]
}